NORAD_CAT_ID,OBJECT_NAME,OBJECT_TYPE,EPOCH,MEAN_MOTION,ECCENTRICITY,INCLINATION,RA_OF_ASC_NODE,ARG_OF_PERICENTER,MEAN_ANOMALY,BSTAR,MEAN_MOTION_DOT,MEAN_MOTION_DDOT,TLE_LINE0,TLE_LINE1,TLE_LINE2,SEMIMAJOR_AXIS,PERIOD,APOGEE,PERIGEE,DECAYED
52873.0,STARLINK-4211,PAYLOAD,2023-03-11 23:59:21,15.08857378,9.09e-05,53.2161,243.8859,93.0526,267.057,0.00011667,1.57e-05,0.0,0 STARLINK-4211,1 52873U 22062AV  23070.99955246  .00001570  00000-0  11667-3 0  9995,2 52873  53.2161 243.8859 0000909  93.0526 267.0570 15.08857378 41449,6917.827,95.436,540.321,539.063,0.0
52873.0,STARLINK-4211,PAYLOAD,2023-03-12 11:07:05,15.08826698,9.66e-05,53.2166,241.8046,85.0135,275.0967,2.7791e-05,1.54e-06,0.0,0 STARLINK-4211,1 52873U 22062AV  23071.46325641  .00000154  00000-0  27791-4 0  9991,2 52873  53.2166 241.8046 0000966  85.0135 275.0967 15.08826698 41518,6917.921,95.438,540.454,539.118,0.0
52873.0,STARLINK-4211,PAYLOAD,2023-03-12 20:39:23,15.08847547,0.0001505,53.2152,240.0214,80.7093,279.4069,2.5933e-05,1.25e-06,0.0,0 STARLINK-4211,1 52873U 22062AV  23071.86068549  .00000125  00000-0  25933-4 0  9990,2 52873  53.2152 240.0214 0001505  80.7093 279.4069 15.08847547 41579,6917.857,95.437,540.763,538.681,0.0
52873.0,STARLINK-4211,PAYLOAD,2023-03-12 22:14:45,15.08854203,9.17e-05,53.2165,239.7211,115.9628,244.1459,0.00011027,1.468e-05,0.0,0 STARLINK-4211,1 52873U 22062AV  23071.92691556  .00001468  00000-0  11027-3 0  9996,2 52873  53.2165 239.7211 0000917 115.9628 244.1459 15.08854203 41586,6917.837,95.437,540.336,539.068,0.0
52873.0,STARLINK-4211,PAYLOAD,2023-03-13 10:57:52,15.08830032,8.95e-05,53.217,237.3433,104.944,255.1651,0.00010479,1.38e-05,0.0,0 STARLINK-4211,1 52873U 22062AV  23072.45685338  .00001380  00000-0  10479-3 0  9999,2 52873  53.2170 237.3433 0000895 104.9440 255.1651 15.08830032 41666,6917.911,95.438,540.395,539.157,0.0
52873.0,STARLINK-4211,PAYLOAD,2023-03-13 20:30:10,15.08845798,0.0001398,53.2162,235.5606,90.073,270.0423,7.5066e-06,-1.68e-06,0.0,0 STARLINK-4211,1 52873U 22062AV  23072.85428702 -.00000168  00000-0  75066-5 0  9992,2 52873  53.2162 235.5606 0001398  90.0730 270.0423 15.08845798 41720,6917.863,95.437,540.695,538.761,0.0
52873.0,STARLINK-4211,PAYLOAD,2023-03-14 10:48:38,15.08844729,0.0002075,53.2146,232.883,80.9087,279.2139,9.2365e-05,1.182e-05,0.0,0 STARLINK-4211,1 52873U 22062AV  23073.45044681  .00001182  00000-0  92365-4 0  9995,2 52873  53.2146 232.8830 0002075  80.9087 279.2139 15.08844729 41321,6917.866,95.437,541.166,538.295,0.0
52873.0,STARLINK-4211,PAYLOAD,2023-03-14 21:56:19,15.08850907,0.0002196,53.2136,230.8019,91.6964,268.4279,0.00023645,3.478e-05,0.0,0 STARLINK-4211,1 52873U 22062AV  23073.91411848  .00003478  00000-0  23645-3 0  9993,2 52873  53.2136 230.8019 0002196  91.6964 268.4279 15.08850907 41885,6917.847,95.437,541.231,538.193,0.0
52873.0,STARLINK-4211,PAYLOAD,2023-03-15 12:14:48,15.08841056,0.0001598,53.2121,228.1235,90.4028,269.7147,4.7964e-05,4.75e-06,0.0,0 STARLINK-4211,1 52873U 22062AV  23074.51028481  .00000475  00000-0  47964-4 0  9992,2 52873  53.2121 228.1235 0001598  90.4028 269.7147 15.08841056 41975,6917.877,95.437,540.848,538.637,0.0
52873.0,STARLINK-4211,PAYLOAD,2023-03-15 21:47:06,15.08863957,0.000115,53.2143,226.3418,83.989,276.1233,0.00034306,5.18e-05,0.0,0 STARLINK-4211,1 52873U 22062AV  23074.90771107  .00005180  00000-0  34306-3 0  9998,2 52873  53.2143 226.3418 0001150  83.9890 276.1233 15.08863957 41545,6917.807,95.436,540.468,538.877,0.0
52873.0,STARLINK-4211,PAYLOAD,2023-03-16 02:33:18,15.08811055,0.000205,53.2122,225.4486,83.2152,276.9073,-0.00042964,-7.114e-05,0.0,0 STARLINK-4211,1 52873U 22062AV  23075.10646049 -.00007114  00000-0 -42964-3 0  9997,2 52873  53.2122 225.4486 0002050  83.2152 276.9073 15.08811055 42061,6917.969,95.439,541.252,538.416,0.0
52873.0,STARLINK-4211,PAYLOAD,2023-03-16 12:05:36,15.08826495,0.0001461,53.2119,223.6633,99.5069,260.6088,-0.00029071,-4.91e-05,0.0,0 STARLINK-4211,1 52873U 22062AV  23075.50389176 -.00004910  00000-0 -29071-3 0  9991,2 52873  53.2119 223.6633 0001461  99.5069 260.6088 15.08826495 42120,6917.922,95.438,540.797,538.776,0.0
52873.0,STARLINK-4211,PAYLOAD,2023-03-16 20:02:31,15.0883592,0.0001053,53.2151,222.1784,84.2386,275.8726,-0.00013636,-2.457e-05,0.0,0 STARLINK-4211,1 52873U 22062AV  23075.83508907 -.00002457  00000-0 -13636-3 0  9996,2 52873  53.2151 222.1784 0001053  84.2386 275.8726 15.08835920 41687,6917.893,95.438,540.486,539.029,0.0
52873.0,STARLINK-4211,PAYLOAD,2023-03-16 21:37:54,15.08838908,0.0001118,53.2151,221.881,89.9132,270.1988,-7.8202e-05,-1.532e-05,0.0,0 STARLINK-4211,1 52873U 22062AV  23075.90132821 -.00001532  00000-0 -78202-4 0  9996,2 52873  53.2151 221.8810 0001118  89.9132 270.1988 15.08838908 42189,6917.884,95.438,540.522,538.975,0.0
52873.0,STARLINK-4211,PAYLOAD,2023-03-17 02:24:05,15.08822403,0.0002351,53.212,220.9874,82.0758,278.0501,-6.9408e-05,-1.392e-05,0.0,0 STARLINK-4211,1 52873U 22062AV  23076.10006079 -.00001392  00000-0 -69408-4 0  9996,2 52873  53.2120 220.9874 0002351  82.0758 278.0501 15.08822403 42218,6917.934,95.439,541.426,538.173,0.0
52873.0,STARLINK-4211,PAYLOAD,2023-03-17 11:56:23,15.08827562,5.45e-05,53.2147,219.2047,84.2555,275.85,-0.00016076,-2.844e-05,0.0,0 STARLINK-4211,1 52873U 22062AV  23076.49749641 -.00002844  00000-0 -16076-3 0  9992,2 52873  53.2147 219.2047 0000545  84.2555 275.8500 15.08827562 41788,6917.918,95.438,540.16,539.406,0.0
52873.0,STARLINK-4211,PAYLOAD,2023-03-17 19:53:19,15.08840705,0.0001151,53.2138,217.7183,87.0681,273.0442,0.00022163,3.241e-05,0.0,0 STARLINK-4211,1 52873U 22062AV  23076.82869516  .00003241  00000-0  22163-3 0  9997,2 52873  53.2138 217.7183 0001151  87.0681 273.0442 15.08840705 42327,6917.878,95.438,540.539,538.947,0.0
52873.0,STARLINK-4211,PAYLOAD,2023-03-18 19:44:05,15.08864442,0.000125,53.2152,213.2584,89.9934,270.1201,0.00067972,0.00010554,0.0,0 STARLINK-4211,1 52873U 22062AV  23077.82228972  .00010554  00000-0  67972-3 0  9995,2 52873  53.2152 213.2584 0001250  89.9934 270.1201 15.08864442 42472,6917.806,95.436,540.535,538.806,0.0
52873.0,STARLINK-4211,PAYLOAD,2023-03-18 21:19:28,15.08868761,0.0001085,53.2143,212.9595,96.5078,263.6038,0.00079872,0.00012456,0.0,0 STARLINK-4211,1 52873U 22062AV  23077.88852840  .00012456  00000-0  79872-3 0  9993,2 52873  53.2143 212.9595 0001085  96.5078 263.6038 15.08868761 41998,6917.792,95.436,540.408,538.907,0.0
52873.0,STARLINK-4211,PAYLOAD,2023-03-19 02:05:38,15.0884044,5.6e-06,53.2151,212.0673,84.6616,275.4382,-0.00014759,-2.635e-05,0.0,0 STARLINK-4211,1 52873U 22062AV  23078.08725110 -.00002635  00000-0 -14759-3 0  9998,2 52873  53.2151 212.0673 0000056  84.6616 275.4382 15.08840440 42514,6917.879,95.438,539.783,539.705,0.0
52873.0,STARLINK-4211,PAYLOAD,2023-03-19 13:13:20,15.08851634,0.0001034,53.2146,209.9869,74.7552,285.3554,0.00053611,8.257e-05,0.0,0 STARLINK-4211,1 52873U 22062AV  23078.55093295  .00008257  00000-0  53611-3 0  9996,2 52873  53.2146 209.9869 0001034  74.7552 285.3554 15.08851634 42097,6917.845,95.437,540.425,538.995,0.0
52873.0,STARLINK-4211,PAYLOAD,2023-03-19 17:59:29,15.0885943,0.0001094,53.2144,209.0941,71.136,288.9751,0.001163,0.00018279,0.0,0 STARLINK-4211,1 52873U 22062AV  23078.74965119  .00018279  00000-0  11630-2 0  9999,2 52873  53.2144 209.0941 0001094  71.1360 288.9751 15.08859430 42619,6917.821,95.436,540.443,538.929,0.0
52873.0,STARLINK-4211,PAYLOAD,2023-03-20 01:56:25,15.0884837,9.25e-05,53.2156,207.6071,79.8902,280.2194,0.00076782,0.00011956,0.0,0 STARLINK-4211,1 52873U 22062AV  23079.08085235  .00011956  00000-0  76782-3 0  9994,2 52873  53.2156 207.6071 0000925  79.8902 280.2194 15.08848370 42661,6917.855,95.437,540.36,539.08,0.0
52873.0,STARLINK-4211,PAYLOAD,2023-03-20 13:04:07,15.08848891,0.0001326,53.2154,205.5266,81.2838,278.8305,0.0013574,0.00021386,0.0,0 STARLINK-4211,1 52873U 22062AV  23079.54453435  .00021386  00000-0  13574-2 0  9993,2 52873  53.2154 205.5266 0001326  81.2838 278.8305 15.08848891 42242,6917.853,95.437,540.636,538.801,0.0
52873.0,STARLINK-4211,PAYLOAD,2023-03-20 14:39:30,15.08846582,0.000144,53.2153,205.229,83.0414,277.0742,0.00098598,0.00015442,0.0,0 STARLINK-4211,1 52873U 22062AV  23079.61077425  .00015442  00000-0  98598-3 0  9998,2 52873  53.2153 205.2290 0001440  83.0414 277.0742 15.08846582 42748,6917.86,95.437,540.721,538.729,0.0
52873.0,STARLINK-4211,PAYLOAD,2023-03-20 19:25:39,15.08866697,0.0001405,53.2154,204.3363,83.873,276.2422,0.0011658,0.00018328,0.0,0 STARLINK-4211,1 52873U 22062AV  23079.80948928  .00018328  00000-0  11658-2 0  9991,2 52873  53.2154 204.3363 0001405  83.8730 276.2422 15.08866697 42778,6917.799,95.436,540.636,538.692,0.0
52873.0,STARLINK-4211,PAYLOAD,2023-03-21 08:08:45,15.08845861,0.0001436,53.2149,201.9574,99.2485,260.867,0.00074767,0.00011633,0.0,0 STARLINK-4211,1 52873U 22062AV  23080.33941253  .00011633  00000-0  74767-3 0  9998,2 52873  53.2149 201.9574 0001436  99.2485 260.8670 15.08845861 42854,6917.862,95.437,540.721,538.734,0.0
52873.0,STARLINK-4211,PAYLOAD,2023-03-21 12:54:54,15.08855957,0.0001248,53.2154,201.066,95.2566,264.8568,0.00083328,0.00013004,0.0,0 STARLINK-4211,1 52873U 22062AV  23080.53813047  .00013004  00000-0  83328-3 0  9996,2 52873  53.2154 201.0660 0001248  95.2566 264.8568 15.08855957 42390,6917.832,95.437,540.56,538.833,0.0
52873.0,STARLINK-4211,PAYLOAD,2023-03-22 12:45:41,15.08841579,0.0001224,53.2161,196.6067,92.4108,267.7024,0.00021124,3.076e-05,0.0,0 STARLINK-4211,1 52873U 22062AV  23081.53173315  .00003076  00000-0  21124-3 0  9998,2 52873  53.2161 196.6067 0001224  92.4108 267.7024 15.08841579 43039,6917.876,95.437,540.587,538.894,0.0
52873.0,STARLINK-4211,PAYLOAD,2023-03-22 17:31:50,15.08856386,0.0001343,53.2174,195.7134,110.1169,249.9968,0.00044609,6.822e-05,0.0,0 STARLINK-4211,1 52873U 22062AV  23081.73044969  .00006822  00000-0  44609-3 0  9997,2 52873  53.2174 195.7134 0001343 110.1169 249.9968 15.08856386 43069,6917.83,95.437,540.624,538.766,0.0
